COSMOS 2404 (701)       
1 28112U 03056A   09080.66429828  .00000031  00000-0  10000-3 0  5343
2 28112  64.0118 285.7786 0047039  99.8172 297.8281  2.13097048 41082
COSMOS 2403 (795)       
1 28114U 03056C   09080.53588385  .00000031  00000-0  10000-3 0  4726
2 28114  64.0348 285.8069 0038744  78.9557 314.6865  2.13104389 41085
COSMOS 2413 (712)       
1 28509U 04053B   09080.71974873  .00000032  00000-0  10000-3 0  1866
2 28509  63.9062 284.5897 0005909 132.7970 258.4596  2.13102694 32953
COSMOS 2419 (714)       
1 28915U 05050A   09079.71412594 -.00000016  00000-0  10000-3 0  9153
2 28915  64.8621 166.7182 0008331 336.3705  30.8243  2.13102006 25188
COSMOS 2418 (713)       
1 28916U 05050B   09079.83776686 -.00000015  00000-0  10000-3 0  9061
2 28916  64.8809 166.7458 0019210 336.2430  78.7466  2.13102559 25186
COSMOS 2425 (716)       
1 29670U 06062A   09080.33269478 -.00000009  00000-0  10000-3 0  6369
2 29670  65.3313  45.9307 0025637 345.8863 123.9504  2.13103250 17396
COSMOS 2426 (717)       
1 29671U 06062B   09080.51512664 -.00000009  00000-0  10000-3 0  6425
2 29671  65.3471  45.9507 0016875 177.1588 298.6705  2.13103657 17404
COSMOS 2424 (715)       
1 29672U 06062C   09080.24877000 -.00000009  00000-0  10000-3 0  6569
2 29672  65.3331  45.9363 0014317 176.8903 274.8012  2.13103659 17393
COSMOS 2433 (720)       
1 32275U 07052A   09080.47189206 -.00000009  00000-0  00000+0 0  3855
2 32275  64.8763 166.4332 0002867 269.4533 140.6299  2.13102537 10911
COSMOS 2432 (719)       
1 32276U 07052B   09080.65290859 -.00000008  00000-0  10000-3 0  3644
2 32276  64.8893 166.4481 0014993 339.3777 164.2008  2.13102157 10919
COSMOS 2431 (718)       
1 32277U 07052C   09080.33713566 -.00000011  00000-0  00000+0 0  3778
2 32277  64.8923 166.4527 0018350 191.8892 204.7445  2.13102288 10993
COSMOS 2434 (721)       
1 32393U 07065A   09079.13444189 -.00000009  00000-0  00000-0 0  2271
2 32393  64.9488  46.5412 0001512 129.9742 230.0342  2.13103206  9591
COSMOS 2435 (722)       
1 32394U 07065B   09080.30706376 -.00000008  00000-0  00000+0 0  2292
2 32394  64.9500  46.5047 0001994 355.7217   4.2707  2.13103380  9556
COSMOS 2436 (723)       
1 32395U 07065C   09079.01620600 -.00000009  00000-0  10000-3 0  2403
2 32395  64.9615  46.5465 0019966 348.5009  11.4483  2.13103503  9520
COSMOS 2442 (724)       
1 33378U 08046A   09080.41807640 -.00000010  00000-0  10000-3 0  1582
2 33378  64.7885 166.0898 0028897 335.6239  77.9301  2.13102157  3773
COSMOS 2443 (725)       
1 33379U 08046B   09080.55234813 -.00000008  00000-0  10000-3 0  1480
2 33379  64.7964 166.1171 0021060 183.1829 198.6302  2.13102439  3789
COSMOS 2444 (726)       
1 33380U 08046C   09080.77257461 -.00000006  00000-0  10000-3 0  1466
2 33380  64.8059 166.1176 0030393 329.3471 176.2715  2.13102406  3771
COSMOS 2447 (727)       
1 33466U 08067A   09080.23255720  .00000030  00000-0  00000+0 0   900
2 33466  64.7579 287.3286 0001747 277.1688 279.2485  2.13101610  1829
COSMOS 2449 (729)       
1 33467U 08067B   09080.68450642  .00000031  00000-0  00000+0 0   934
2 33467  64.7465 287.3007 0002315 312.5983   5.7472  2.13101798  1857
COSMOS 2448 (728)       
1 33468U 08067C   09080.65337309  .00000031  00000-0  00000+0 0   981
2 33468  64.7500 287.3026 0004139 332.3492 231.8835  2.13101457  1846
